[{"OBJECT_NAME":"HXMT (HUIYAN)","OBJECT_ID":"2017-034A","EPOCH":"2026-04-24T06:03:39.491424","MEAN_MOTION":15.17978734,"ECCENTRICITY":0.00311913,"INCLINATION":43.0132,"RA_OF_ASC_NODE":123.2473,"ARG_OF_PERICENTER":165.5823,"MEAN_ANOMALY":194.5922,"EPHEMERIS_TYPE":0,"CLASSIFICATION_TYPE":"U","NORAD_CAT_ID":42758,"ELEMENT_SET_NO":999,"REV_AT_EPOCH":48946,"BSTAR":0.00012371805,"MEAN_MOTION_DOT":2.345e-5,"MEAN_MOTION_DDOT":0},{"OBJECT_NAME":"SAOCOM 1A","OBJECT_ID":"2018-076A","EPOCH":"2026-04-24T06:18:11.487744","MEAN_MOTION":14.82149981,"ECCENTRICITY":0.00015209,"INCLINATION":97.8904,"RA_OF_ASC_NODE":301.7907,"ARG_OF_PERICENTER":88.5171,"MEAN_ANOMALY":271.6216,"EPHEMERIS_TYPE":0,"CLASSIFICATION_TYPE":"U","NORAD_CAT_ID":43641,"ELEMENT_SET_NO":999,"REV_AT_EPOCH":40811,"BSTAR":-1.0257382e-5,"MEAN_MOTION_DOT":-1.34e-6,"MEAN_MOTION_DDOT":0},{"OBJECT_NAME":"H-2A R/B","OBJECT_ID":"2018-084L","EPOCH":"2026-04-24T06:39:11.417472","MEAN_MOTION":15.43146446,"ECCENTRICITY":0.00233391,"INCLINATION":98.8662,"RA_OF_ASC_NODE":341.4642,"ARG_OF_PERICENTER":222.1724,"MEAN_ANOMALY":137.7725,"EPHEMERIS_TYPE":0,"CLASSIFICATION_TYPE":"U","NORAD_CAT_ID":43682,"ELEMENT_SET_NO":999,"REV_AT_EPOCH":41280,"BSTAR":0.00033984121,"MEAN_MOTION_DOT":0.00015095,"MEAN_MOTION_DDOT":0},{"OBJECT_NAME":"SAOCOM 1B","OBJECT_ID":"2020-059A","EPOCH":"2026-04-24T07:03:06.230304","MEAN_MOTION":14.82141729,"ECCENTRICITY":0.00016149,"INCLINATION":97.8898,"RA_OF_ASC_NODE":300.9156,"ARG_OF_PERICENTER":82.5514,"MEAN_ANOMALY":277.5882,"EPHEMERIS_TYPE":0,"CLASSIFICATION_TYPE":"U","NORAD_CAT_ID":46265,"ELEMENT_SET_NO":999,"REV_AT_EPOCH":30550,"BSTAR":3.6512207e-5,"MEAN_MOTION_DOT":2.38e-6,"MEAN_MOTION_DDOT":0},{"OBJECT_NAME":"CSS (TIANHE)","OBJECT_ID":"2021-035A","EPOCH":"2026-04-23T13:00:36.976896","MEAN_MOTION":15.62838201,"ECCENTRICITY":0.00067454,"INCLINATION":41.4673,"RA_OF_ASC_NODE":294.8032,"ARG_OF_PERICENTER":259.8887,"MEAN_ANOMALY":100.1192,"EPHEMERIS_TYPE":0,"CLASSIFICATION_TYPE":"U","NORAD_CAT_ID":48274,"ELEMENT_SET_NO":999,"REV_AT_EPOCH":28462,"BSTAR":0.00025055873,"MEAN_MOTION_DOT":0.00023003,"MEAN_MOTION_DDOT":0},{"OBJECT_NAME":"COSMOS 2550","OBJECT_ID":"2021-056A","EPOCH":"2026-04-24T07:01:59.113920","MEAN_MOTION":15.3383435,"ECCENTRICITY":0.00083367,"INCLINATION":67.1427,"RA_OF_ASC_NODE":262.9325,"ARG_OF_PERICENTER":270.1602,"MEAN_ANOMALY":89.8597,"EPHEMERIS_TYPE":0,"CLASSIFICATION_TYPE":"U","NORAD_CAT_ID":48865,"ELEMENT_SET_NO":999,"REV_AT_EPOCH":27045,"BSTAR":0.00013544735,"MEAN_MOTION_DOT":4.268e-5,"MEAN_MOTION_DDOT":0},{"OBJECT_NAME":"CZ-2C R/B","OBJECT_ID":"2022-058K","EPOCH":"2026-04-24T01:05:13.551072","MEAN_MOTION":15.5757959,"ECCENTRICITY":0.00391414,"INCLINATION":50.1866,"RA_OF_ASC_NODE":84.3691,"ARG_OF_PERICENTER":35.0181,"MEAN_ANOMALY":325.3353,"EPHEMERIS_TYPE":0,"CLASSIFICATION_TYPE":"U","NORAD_CAT_ID":52794,"ELEMENT_SET_NO":999,"REV_AT_EPOCH":21719,"BSTAR":0.00045125167,"MEAN_MOTION_DOT":0.00034836,"MEAN_MOTION_DDOT":0},{"OBJECT_NAME":"CZ-2C R/B","OBJECT_ID":"2022-132E","EPOCH":"2026-04-23T23:45:55.147968","MEAN_MOTION":15.6599287,"ECCENTRICITY":0.00128862,"INCLINATION":97.2946,"RA_OF_ASC_NODE":118.8312,"ARG_OF_PERICENTER":280.4213,"MEAN_ANOMALY":79.5595,"EPHEMERIS_TYPE":0,"CLASSIFICATION_TYPE":"U","NORAD_CAT_ID":54039,"ELEMENT_SET_NO":999,"REV_AT_EPOCH":19745,"BSTAR":0.0003509007,"MEAN_MOTION_DOT":0.00035916,"MEAN_MOTION_DDOT":0},{"OBJECT_NAME":"GSLV R/B","OBJECT_ID":"2022-138AN","EPOCH":"2026-04-24T04:16:43.173408","MEAN_MOTION":14.97018431,"ECCENTRICITY":0.0020836,"INCLINATION":87.3817,"RA_OF_ASC_NODE":151.1213,"ARG_OF_PERICENTER":353.5688,"MEAN_ANOMALY":6.5273,"EPHEMERIS_TYPE":0,"CLASSIFICATION_TYPE":"U","NORAD_CAT_ID":54149,"ELEMENT_SET_NO":999,"REV_AT_EPOCH":19073,"BSTAR":0.00016622597,"MEAN_MOTION_DOT":1.949e-5,"MEAN_MOTION_DDOT":0},{"OBJECT_NAME":"XRISM","OBJECT_ID":"2023-137A","EPOCH":"2026-04-24T01:35:28.312224","MEAN_MOTION":15.11981271,"ECCENTRICITY":0.00075037,"INCLINATION":31.0033,"RA_OF_ASC_NODE":350.0477,"ARG_OF_PERICENTER":137.7043,"MEAN_ANOMALY":222.4175,"EPHEMERIS_TYPE":0,"CLASSIFICATION_TYPE":"U","NORAD_CAT_ID":57800,"ELEMENT_SET_NO":999,"REV_AT_EPOCH":14466,"BSTAR":0.00021646832,"MEAN_MOTION_DOT":3.906e-5,"MEAN_MOTION_DDOT":0},{"OBJECT_NAME":"ACS3","OBJECT_ID":"2024-077B","EPOCH":"2026-04-22T17:55:33.435264","MEAN_MOTION":13.91470077,"ECCENTRICITY":0.0066905,"INCLINATION":97.185,"RA_OF_ASC_NODE":43.963,"ARG_OF_PERICENTER":350.3018,"MEAN_ANOMALY":9.6851,"EPHEMERIS_TYPE":0,"CLASSIFICATION_TYPE":"U","NORAD_CAT_ID":59588,"ELEMENT_SET_NO":999,"REV_AT_EPOCH":10032,"BSTAR":0.0037433005,"MEAN_MOTION_DOT":4.794e-5,"MEAN_MOTION_DDOT":0},{"OBJECT_NAME":"HTV-X1","OBJECT_ID":"2025-241A","EPOCH":"2026-04-22T23:48:46.558656","MEAN_MOTION":15.32728944,"ECCENTRICITY":0.00078219,"INCLINATION":51.6353,"RA_OF_ASC_NODE":219.4042,"ARG_OF_PERICENTER":344.1053,"MEAN_ANOMALY":15.9682,"EPHEMERIS_TYPE":0,"CLASSIFICATION_TYPE":"U","NORAD_CAT_ID":66174,"ELEMENT_SET_NO":999,"REV_AT_EPOCH":2773,"BSTAR":0.00014900059,"MEAN_MOTION_DOT":4.413e-5,"MEAN_MOTION_DDOT":0},{"OBJECT_NAME":"SZ-21 MODULE","OBJECT_ID":"2025-246C","EPOCH":"2026-04-24T03:54:02.891808","MEAN_MOTION":15.72046664,"ECCENTRICITY":0.00041538,"INCLINATION":41.473,"RA_OF_ASC_NODE":282.6783,"ARG_OF_PERICENTER":317.889,"MEAN_ANOMALY":42.1633,"EPHEMERIS_TYPE":0,"CLASSIFICATION_TYPE":"U","NORAD_CAT_ID":66515,"ELEMENT_SET_NO":999,"REV_AT_EPOCH":2522,"BSTAR":0.00025885887,"MEAN_MOTION_DOT":0.00034762,"MEAN_MOTION_DDOT":0}]
